*******************************************************************************
Ephemeris / WWW_USER Tue Mar 27 20:42:26 2018 Pasadena, USA      / Horizons    
*******************************************************************************
Target body name: Neptune Barycenter (8)          {source: DE431mx}
Center body name: Solar System Barycenter (0)     {source: DE431mx}
Center-site name: BODY CENTER
*******************************************************************************
Start time      : A.D. 2000-Jan-01 00:00:00.0000 TDB
Stop  time      : A.D. 2005-Jan-01 00:00:00.0000 TDB
Step-size       : 7200 minutes
*******************************************************************************
Center geodetic : 0.00000000,0.00000000,0.0000000 {E-lon(deg),Lat(deg),Alt(km)}
Center cylindric: 0.00000000,0.00000000,0.0000000 {E-lon(deg),Dxy(km),Dz(km)}
Center radii    : (undefined)                                                  
Output units    : AU-D                                                         
Output type     : GEOMETRIC cartesian states
Output format   : 2 (position and velocity)
Reference frame : ICRF/J2000.0                                                 
Coordinate systm: Ecliptic and Mean Equinox of Reference Epoch                 
*******************************************************************************
JDTDB
   X     Y     Z
   VX    VY    VZ
*******************************************************************************
$$SOE
2451964.500000000 = A.D. 2001-Feb-24 00:00:00.0000 TDB 
   1.787278869761980E+01 -2.422863567121332E+01  8.704687159893215E-02
   2.505721168566857E-03  1.881545570269928E-03 -9.649284085736228E-05
2451969.500000000 = A.D. 2001-Mar-01 00:00:00.0000 TDB 
   1.788531487745253E+01 -2.421922465548736E+01  8.656439558130997E-02
   2.504750648902132E-03  1.882860638046903E-03 -9.649756183389905E-05
2451974.500000000 = A.D. 2001-Mar-06 00:00:00.0000 TDB 
   1.789783620295278E+01 -2.420980706565381E+01  8.608189602415894E-02
   2.503779435612742E-03  1.884175213248612E-03 -9.650225666935625E-05
2451979.500000000 = A.D. 2001-Mar-11 00:00:00.0000 TDB 
   1.791035267065304E+01 -2.420038290417644E+01  8.559937305819040E-02
   2.502807528949652E-03  1.885489295511889E-03 -9.650692536204650E-05
2451984.500000000 = A.D. 2001-Mar-16 00:00:00.0000 TDB 
   1.792286427708708E+01 -2.419095217352086E+01  8.511682681411409E-02
   2.501834929164087E-03  1.886802884473635E-03 -9.651156791026893E-05
2451989.500000000 = A.D. 2001-Mar-21 00:00:00.0000 TDB 
   1.793537101878990E+01 -2.418151487615448E+01  8.463425742266364E-02
   2.500861636506491E-03  1.888115979770492E-03 -9.651618431214710E-05
2451994.500000000 = A.D. 2001-Mar-26 00:00:00.0000 TDB 
   1.794787289229777E+01 -2.417207101454653E+01  8.415166501457434E-02
   2.499887651228184E-03  1.889428581039025E-03 -9.652077456582845E-05
2451999.500000000 = A.D. 2001-Mar-31 00:00:00.0000 TDB 
   1.796036989414823E+01 -2.416262059116807E+01  8.366904972058939E-02
   2.498912973581017E-03  1.890740687916324E-03 -9.652533866969482E-05
2452004.500000000 = A.D. 2001-Apr-05 00:00:00.0000 TDB 
   1.797286202088005E+01 -2.415316360849196E+01  8.318641167146154E-02
   2.497937603816830E-03  1.892052300039519E-03 -9.652987662209457E-05
2452009.500000000 = A.D. 2001-Apr-10 00:00:00.0000 TDB 
   1.798534926903329E+01 -2.414370006899287E+01  8.270375099795636E-02
   2.496961542187455E-03  1.893363417045788E-03 -9.653438842134418E-05
2452014.500000000 = A.D. 2001-Apr-15 00:00:00.0000 TDB 
   1.799783163514924E+01 -2.413422997514730E+01  8.222106783083935E-02
   2.495984788944719E-03  1.894674038572352E-03 -9.653887406572943E-05
2452019.500000000 = A.D. 2001-Apr-20 00:00:00.0000 TDB 
   1.801030911577046E+01 -2.412475332943355E+01  8.173836230089357E-02
   2.495007344341067E-03  1.895984164256352E-03 -9.654333355355046E-05
2452024.500000000 = A.D. 2001-Apr-25 00:00:00.0000 TDB 
   1.802278170744080E+01 -2.411527013433174E+01  8.125563453890049E-02
   2.494029208629899E-03  1.897293793735168E-03 -9.654776688304387E-05
2452029.500000000 = A.D. 2001-Apr-30 00:00:00.0000 TDB 
   1.803524940670534E+01 -2.410578039232381E+01  8.077288467566068E-02
   2.493050382064182E-03  1.898602926646298E-03 -9.655217405260967E-05
2452034.500000000 = A.D. 2001-May-05 00:00:00.0000 TDB 
   1.804771221011044E+01 -2.409628410589350E+01  8.029011284197796E-02
   2.492070864897381E-03  1.899911562627128E-03 -9.655655506064908E-05
2452039.500000000 = A.D. 2001-May-10 00:00:00.0000 TDB 
   1.806017011420374E+01 -2.408678127752636E+01  7.980731916865925E-02
   2.491090657383357E-03  1.901219701315005E-03 -9.656090990550051E-05
2452044.500000000 = A.D. 2001-May-15 00:00:00.0000 TDB 
   1.807262311553412E+01 -2.407727190970978E+01  7.932450378653068E-02
   2.490109759776369E-03  1.902527342347241E-03 -9.656523858544100E-05
2452049.500000000 = A.D. 2001-May-20 00:00:00.0000 TDB 
   1.808507121065177E+01 -2.406775600493293E+01  7.884166682641829E-02
   2.489128172331123E-03  1.903834485361168E-03 -9.656954109874585E-05
2452054.500000000 = A.D. 2001-May-25 00:00:00.0000 TDB 
   1.809751439610812E+01 -2.405823356568680E+01  7.835880841915777E-02
   2.488145895303096E-03  1.905141129993582E-03 -9.657381744389821E-05
2452059.500000000 = A.D. 2001-May-30 00:00:00.0000 TDB 
   1.810995266845592E+01 -2.404870459446423E+01  7.787592869559591E-02
   2.487162928947612E-03  1.906447275881018E-03 -9.657806761908449E-05
2452064.500000000 = A.D. 2001-Jun-04 00:00:00.0000 TDB 
   1.812238602424915E+01 -2.403916909375984E+01  7.739302778658430E-02
   2.486179273520335E-03  1.907752922660433E-03 -9.658229162269488E-05
2452069.500000000 = A.D. 2001-Jun-09 00:00:00.0000 TDB 
   1.813481446004310E+01 -2.402962706607008E+01  7.691010582299049E-02
   2.485194929277316E-03  1.909058069968561E-03 -9.658648945310534E-05
2452074.500000000 = A.D. 2001-Jun-14 00:00:00.0000 TDB 
   1.814723797239432E+01 -2.402007851389321E+01  7.642716293568036E-02
   2.484209896474990E-03  1.910362717441910E-03 -9.659066110868025E-05
2452079.500000000 = A.D. 2001-Jun-19 00:00:00.0000 TDB 
   1.815965655786068E+01 -2.401052343972933E+01  7.594419925553104E-02
   2.483224175370183E-03  1.911666864716771E-03 -9.659480658777081E-05
2452084.500000000 = A.D. 2001-Jun-24 00:00:00.0000 TDB 
   1.817207021300128E+01 -2.400096184608032E+01  7.546121491343397E-02
   2.482237766219672E-03  1.912970511429146E-03 -9.659892588873658E-05
2452089.500000000 = A.D. 2001-Jun-29 00:00:00.0000 TDB 
   1.818447893437656E+01 -2.399139373544991E+01  7.497821004027895E-02
   2.481250669280463E-03  1.914273657214921E-03 -9.660301900973588E-05
2452094.500000000 = A.D. 2001-Jul-04 00:00:00.0000 TDB 
   1.819688271854820E+01 -2.398181911034365E+01  7.449518476697177E-02
   2.480262884809869E-03  1.915576301710142E-03 -9.660708594917413E-05
2452099.500000000 = A.D. 2001-Jul-09 00:00:00.0000 TDB 
   1.820928156207921E+01 -2.397223797326890E+01  7.401213922442619E-02
   2.479274413065355E-03  1.916878444550779E-03 -9.661112670546193E-05
2452104.500000000 = A.D. 2001-Jul-14 00:00:00.0000 TDB 
   1.822167546153383E+01 -2.396265032673484E+01  7.352907354355753E-02
   2.478285254304579E-03  1.918180085372728E-03 -9.661514127698510E-05
2452109.500000000 = A.D. 2001-Jul-19 00:00:00.0000 TDB 
   1.823406441347765E+01 -2.395305617325248E+01  7.304598785530025E-02
   2.477295408785397E-03  1.919481223811802E-03 -9.661912966210419E-05
2452114.500000000 = A.D. 2001-Jul-24 00:00:00.0000 TDB 
   1.824644841447752E+01 -2.394345551533463E+01  7.256288229058405E-02
   2.476304876765953E-03  1.920781859503828E-03 -9.662309185919440E-05
2452119.500000000 = A.D. 2001-Jul-29 00:00:00.0000 TDB 
   1.825882746110157E+01 -2.393384835549596E+01  7.207975698035772E-02
   2.475313658503846E-03  1.922081992085030E-03 -9.662702786659100E-05
2452124.500000000 = A.D. 2001-Aug-03 00:00:00.0000 TDB 
   1.827120154991925E+01 -2.392423469625291E+01  7.159661205557008E-02
   2.474321754257455E-03  1.923381621191301E-03 -9.663093768262098E-05
2452129.500000000 = A.D. 2001-Aug-08 00:00:00.0000 TDB 
   1.828357067750127E+01 -2.391461454012378E+01  7.111344764718586E-02
   2.473329164285775E-03  1.924680746458556E-03 -9.663482130571259E-05
2452134.500000000 = A.D. 2001-Aug-13 00:00:00.0000 TDB 
   1.829593484041966E+01 -2.390498788962866E+01  7.063026388617299E-02
   2.472335888847858E-03  1.925979367522802E-03 -9.663867873432412E-05
2452139.500000000 = A.D. 2001-Aug-18 00:00:00.0000 TDB 
   1.830829403524774E+01 -2.389535474728949E+01  7.014706090350260E-02
   2.471341928202813E-03  1.927277484020130E-03 -9.664250996694168E-05
2452144.500000000 = A.D. 2001-Aug-23 00:00:00.0000 TDB 
   1.832064825856011E+01 -2.388571511563001E+01  6.966383883016333E-02
   2.470347282609804E-03  1.928575095586717E-03 -9.664631500207973E-05
2452149.500000000 = A.D. 2001-Aug-28 00:00:00.0000 TDB 
   1.833299750693268E+01 -2.387606899717579E+01  6.918059779714703E-02
   2.469351952328469E-03  1.929872201858140E-03 -9.665009383790363E-05
2452154.500000000 = A.D. 2001-Sep-02 00:00:00.0000 TDB 
   1.834534177694268E+01 -2.386641639445419E+01  6.869733793545030E-02
   2.468355937618774E-03  1.931168802470203E-03 -9.665384647290000E-05
2452159.500000000 = A.D. 2001-Sep-07 00:00:00.0000 TDB 
   1.835768106516860E+01 -2.385675730999445E+01  6.821405937608729E-02
   2.467359238740998E-03  1.932464897059067E-03 -9.665757290550123E-05
2452164.500000000 = A.D. 2001-Sep-12 00:00:00.0000 TDB 
   1.837001536819024E+01 -2.384709174632759E+01  6.773076225007058E-02
   2.466361855955568E-03  1.933760485260626E-03 -9.666127313415726E-05
2452169.500000000 = A.D. 2001-Sep-17 00:00:00.0000 TDB 
   1.838234468258874E+01 -2.383741970598643E+01  6.724744668842225E-02
   2.465363789523064E-03  1.935055566710514E-03 -9.666494715733778E-05
